[
    {
        "Altitude(m)": 624792.8067610028,
        "Argument of Periapsis(deg)": 0.0,
        "Eccentricity": 0.0,
        "Inclination(deg)": 60.0,
        "Latitude(deg)": -59.147192737002285,
        "Longitude(deg)": -90.97362464104694,
        "Mean Anomaly(deg)": -98.18180000000002,
        "RAAN(deg)": 114.99999999999999,
        "Satellite Name": "Test1 522",
        "Satellite Number": 522,
        "Semi-Major Axis(m)": 6980739.136638005,
        "Time(s)": 0
    },
    {
        "Altitude(m)": 624842.198801962,
        "Argument of Periapsis(deg)": 0.00010418945913296404,
        "Eccentricity": 0.0,
        "Inclination(deg)": 60.0,
        "Latitude(deg)": -59.28927662722517,
        "Longitude(deg)": -89.84411724480248,
        "Mean Anomaly(deg)": -97.56169385453816,
        "RAAN(deg)": 114.99957995086024,
        "Satellite Name": "Test1 522",
        "Satellite Number": 522,
        "Semi-Major Axis(m)": 6980739.136638005,
        "Time(s)": 10
    }
]